STARLINK-1556
1 26033C 20055G   21325.17533582  .00000023  00000-0  15256-5 0  3257
2 26033  53.0544 332.4454 0001654  65.7360 336.8868 15.06397242    19
